[{"OBJECT_NAME":"XINGCHI-1 02B","OBJECT_ID":"2023-187C","EPOCH":"2026-03-09T22:36:06.861312","MEAN_MOTION":14.854851,"ECCENTRICITY":0.00120604,"INCLINATION":97.9317,"RA_OF_ASC_NODE":153.3872,"ARG_OF_PERICENTER":104.6634,"MEAN_ANOMALY":255.5919,"EPHEMERIS_TYPE":0,"CLASSIFICATION_TYPE":"U","NORAD_CAT_ID":58498,"ELEMENT_SET_NO":999,"REV_AT_EPOCH":12244,"BSTAR":0.00027337967,"MEAN_MOTION_DOT":2.307e-5,"MEAN_MOTION_DDOT":0},{"OBJECT_NAME":"THOR BURNER 2A DEB","OBJECT_ID":"1974-015H","EPOCH":"2026-03-08T04:04:47.955936","MEAN_MOTION":14.75580754,"ECCENTRICITY":0.00614461,"INCLINATION":99.0558,"RA_OF_ASC_NODE":327.2504,"ARG_OF_PERICENTER":233.8215,"MEAN_ANOMALY":125.7298,"EPHEMERIS_TYPE":0,"CLASSIFICATION_TYPE":"U","NORAD_CAT_ID":37584,"ELEMENT_SET_NO":999,"REV_AT_EPOCH":61465,"BSTAR":0.002131621,"MEAN_MOTION_DOT":0.00014951,"MEAN_MOTION_DDOT":0}]
